<?xml version='1.0' encoding='UTF-8'?>
<kml xmlns='http://www.opengis.net/kml/2.2' xmlns:gx='http://www.google.com/kml/ext/2.2'>
<Document>
<name>北屯150</name>
<Placemark>
<styleUrl>#41f1a56f-c65e-150d-f408-197cde987b3e</styleUrl>
<name>北屯150</name>
<Polygon>
<outerBoundaryIs>
<LinearRing>
<coordinates>87.87736270,46.76736048,0.0 87.87710084,46.76711792,0.0 87.87707938,46.76652510,0.0 87.87710799,46.76456044,0.0 87.87710980,46.76161612,0.0 87.87888940,46.76181490,0.0 87.87890600,46.76730239,0.0 87.87745926,46.76740580,0.0 87.87736270,46.76736048,0.0 87.87736270,46.76736048,0.0</coordinates>
</LinearRing>
</outerBoundaryIs>
</Polygon>
<ExtendedData>
<Data name="area"><value>85556.38</value></Data>
<Data name="面积(亩)"><value>128.335</value></Data>
<Data name="begin_time"><value>2026-04-21 11:38:12</value></Data>
<Data name="end_time"><value>2026-04-21 11:38:12</value></Data>
<Data name="mi"><value>1514.3</value></Data>
<Data name="desc"><value></value></Data>
</ExtendedData>
</Placemark>
<Style id='41f1a56f-c65e-150d-f408-197cde987b3e'>
<LineStyle>
<color>FF0000FF</color>
<width>2.0</width>
</LineStyle>
<PolyStyle>
<color>4C6F9F4F</color>
</PolyStyle>
</Style>
</Document>
</kml>
