<?xml version='1.0' encoding='UTF-8'?>
<kml xmlns='http://www.opengis.net/kml/2.2' xmlns:gx='http://www.google.com/kml/ext/2.2'>
<Document>
<name>100</name>
<Placemark>
<styleUrl>#b33a2802-083b-4a3f-aee3-04a65aaba75d</styleUrl>
<name>100</name>
<Polygon>
<outerBoundaryIs>
<LinearRing>
<coordinates>89.48137319,44.10482876,0.0 89.48090112,44.10095607,0.0 89.48311842,44.10050407,0.0 89.48354757,44.10447951,0.0 89.48137319,44.10482876,0.0 89.48137319,44.10482876,0.0 89.48137319,44.10482876,0.0</coordinates>
</LinearRing>
</outerBoundaryIs>
</Polygon>
<ExtendedData>
<Data name="area"><value>78107.51</value></Data>
<Data name="面积(亩)"><value>117.161</value></Data>
<Data name="begin_time"><value>2026-04-21 14:27:18</value></Data>
<Data name="end_time"><value>2026-04-21 14:27:18</value></Data>
<Data name="mi"><value>1239.0</value></Data>
<Data name="desc"><value></value></Data>
</ExtendedData>
</Placemark>
<Style id='b33a2802-083b-4a3f-aee3-04a65aaba75d'>
<LineStyle>
<color>FF0000FF</color>
<width>3.0</width>
</LineStyle>
<PolyStyle>
<color>337F48E3</color>
</PolyStyle>
</Style>
</Document>
</kml>
