<?xml version='1.0' encoding='UTF-8'?>
<kml xmlns='http://www.opengis.net/kml/2.2' xmlns:gx='http://www.google.com/kml/ext/2.2'>
<Document>
<name>葫芦100</name>
<Placemark>
<styleUrl>#cdf55169-78e8-4a4f-b9ad-4c8b2de914f6</styleUrl>
<name>葫芦100</name>
<Polygon>
<outerBoundaryIs>
<LinearRing>
<coordinates>89.46041440,44.12471289,0.0 89.46183061,44.12115986,0.0 89.46537828,44.11599422,0.0 89.46615075,44.11613800,0.0 89.46283197,44.12135497,0.0 89.46122979,44.12517498,0.0 89.46041440,44.12471289,0.0 89.46041440,44.12471289,0.0 89.46041440,44.12471289,0.0</coordinates>
</LinearRing>
</outerBoundaryIs>
</Polygon>
<ExtendedData>
<Data name="area"><value>80156.88</value></Data>
<Data name="面积(亩)"><value>120.235</value></Data>
<Data name="begin_time"><value>2026-04-21 14:29:59</value></Data>
<Data name="end_time"><value>2026-04-21 14:29:59</value></Data>
<Data name="mi"><value>2281.9</value></Data>
<Data name="desc"><value></value></Data>
</ExtendedData>
</Placemark>
<Style id='cdf55169-78e8-4a4f-b9ad-4c8b2de914f6'>
<LineStyle>
<color>FF0000FF</color>
<width>2.0</width>
</LineStyle>
<PolyStyle>
<color>337F48E3</color>
</PolyStyle>
</Style>
</Document>
</kml>
