<?xml version='1.0' encoding='UTF-8'?>
<kml xmlns='http://www.opengis.net/kml/2.2' xmlns:gx='http://www.google.com/kml/ext/2.2'>
<Document>
<name>葫芦200</name>
<Placemark>
<styleUrl>#d6cb5652-27e4-4422-9567-51f1bc14957f</styleUrl>
<name>葫芦200</name>
<Polygon>
<outerBoundaryIs>
<LinearRing>
<coordinates>89.46122979,44.12517498,0.0 89.46283197,44.12135497,0.0 89.46615075,44.11613800,0.0 89.46842501,44.11660185,0.0 89.46496318,44.12177770,0.0 89.46409056,44.12164420,0.0 89.46254561,44.12497130,0.0 89.46203063,44.12549499,0.0 89.46122979,44.12517498,0.0 89.46122979,44.12517498,0.0 89.46122979,44.12517498,0.0</coordinates>
</LinearRing>
</outerBoundaryIs>
</Polygon>
<ExtendedData>
<Data name="area"><value>159332.56</value></Data>
<Data name="面积(亩)"><value>238.999</value></Data>
<Data name="begin_time"><value>2026-04-21 14:31:03</value></Data>
<Data name="end_time"><value>2026-04-21 14:31:03</value></Data>
<Data name="mi"><value>2516.9</value></Data>
<Data name="desc"><value></value></Data>
</ExtendedData>
</Placemark>
<Style id='d6cb5652-27e4-4422-9567-51f1bc14957f'>
<LineStyle>
<color>FF0000FF</color>
<width>2.0</width>
</LineStyle>
<PolyStyle>
<color>337F48E3</color>
</PolyStyle>
</Style>
</Document>
</kml>
