<?xml version='1.0' encoding='UTF-8'?>
<kml xmlns='http://www.opengis.net/kml/2.2' xmlns:gx='http://www.google.com/kml/ext/2.2'>
<Document>
<name>葫芦200</name>
<Placemark>
<styleUrl>#af07f698-0189-4e36-9164-71a910ec717f</styleUrl>
<name>葫芦200</name>
<Polygon>
<outerBoundaryIs>
<LinearRing>
<coordinates>89.46122979,44.12517498,0.0 89.46283197,44.12135497,0.0 89.46615075,44.11613800,0.0 89.46855376,44.11664293,0.0 89.46499179,44.12175716,0.0 89.46394751,44.12162366,0.0 89.46257422,44.12505345,0.0 89.46195910,44.12551553,0.0 89.46122979,44.12517498,0.0 89.46122979,44.12517498,0.0 89.46122979,44.12517498,0.0</coordinates>
</LinearRing>
</outerBoundaryIs>
</Polygon>
<ExtendedData>
<Data name="area"><value>162010.7</value></Data>
<Data name="面积(亩)"><value>243.016</value></Data>
<Data name="begin_time"><value>2026-04-21 14:31:31</value></Data>
<Data name="end_time"><value>2026-04-21 14:31:31</value></Data>
<Data name="mi"><value>2541.9</value></Data>
<Data name="desc"><value></value></Data>
</ExtendedData>
</Placemark>
<Style id='af07f698-0189-4e36-9164-71a910ec717f'>
<LineStyle>
<color>FF0000FF</color>
<width>2.0</width>
</LineStyle>
<PolyStyle>
<color>337F48E3</color>
</PolyStyle>
</Style>
</Document>
</kml>
