<?xml version='1.0' encoding='UTF-8'?>
<kml xmlns='http://www.opengis.net/kml/2.2' xmlns:gx='http://www.google.com/kml/ext/2.2'>
<Document>
<name>300李人工棉花</name>
<Placemark>
<styleUrl>#83abfe38-2b95-d1bd-48f9-2a708f3fccfa</styleUrl>
<name>300李人工棉花</name>
<Polygon>
<outerBoundaryIs>
<LinearRing>
<coordinates>85.95269009,44.40308548,0.0 85.95912024,44.40117940,0.0 85.95869824,44.39760215,0.0 85.95228239,44.39955433,0.0 85.95269009,44.40308548,0.0 85.95269009,44.40308548,0.0</coordinates>
</LinearRing>
</outerBoundaryIs>
</Polygon>
<ExtendedData>
<Data name="area"><value>208736.1</value></Data>
<Data name="面积(亩)"><value>313.104</value></Data>
<Data name="begin_time"><value>2026-04-21 14:49:23</value></Data>
<Data name="end_time"><value>2026-04-21 14:49:23</value></Data>
<Data name="mi"><value>1902.4</value></Data>
<Data name="desc"><value></value></Data>
</ExtendedData>
</Placemark>
<Style id='83abfe38-2b95-d1bd-48f9-2a708f3fccfa'>
<LineStyle>
<color>FF0000FF</color>
<width>3.0</width>
</LineStyle>
<PolyStyle>
<color>000000FF</color>
</PolyStyle>
</Style>
</Document>
</kml>
