<?xml version='1.0' encoding='UTF-8'?>
<kml xmlns='http://www.opengis.net/kml/2.2' xmlns:gx='http://www.google.com/kml/ext/2.2'>
<Document>
<name>190</name>
<Placemark>
<styleUrl>#b8c2c003-1953-464c-9a47-5809343696eb</styleUrl>
<name>190</name>
<Polygon>
<outerBoundaryIs>
<LinearRing>
<coordinates>85.95486745,44.39875534,0.0 85.95526186,44.40237769,0.0 85.95912691,44.40119552,0.0 85.95869646,44.39761540,0.0 85.95491828,44.39873413,0.0 85.95486745,44.39875534,0.0</coordinates>
</LinearRing>
</outerBoundaryIs>
</Polygon>
<ExtendedData>
<Data name="area"><value>127305.56</value></Data>
<Data name="面积(亩)"><value>190.958</value></Data>
<Data name="begin_time"><value>2026-04-12 10:14:46</value></Data>
<Data name="end_time"><value>2026-04-12 10:14:46</value></Data>
<Data name="mi"><value>1468.8</value></Data>
<Data name="desc"><value></value></Data>
</ExtendedData>
</Placemark>
<Style id='b8c2c003-1953-464c-9a47-5809343696eb'>
<LineStyle>
<color>FF0000FF</color>
<width>3.0</width>
</LineStyle>
<PolyStyle>
<color>000000FF</color>
</PolyStyle>
</Style>
</Document>
</kml>
