<?xml version='1.0' encoding='UTF-8'?>
<kml xmlns='http://www.opengis.net/kml/2.2' xmlns:gx='http://www.google.com/kml/ext/2.2'>
<Document>
<name>120</name>
<Placemark>
<styleUrl>#0486998a-bfac-4bbb-8598-4e81bc27a8ff</styleUrl>
<name>120</name>
<Polygon>
<outerBoundaryIs>
<LinearRing>
<coordinates>85.95225376,44.39955959,0.0 85.95475109,44.39883995,0.0 85.95522976,44.40234805,0.0 85.95267096,44.40305149,0.0 85.95225376,44.39955959,0.0</coordinates>
</LinearRing>
</outerBoundaryIs>
</Polygon>
<ExtendedData>
<Data name="area"><value>81341.97</value></Data>
<Data name="面积(亩)"><value>122.013</value></Data>
<Data name="begin_time"><value>2026-04-13 16:48:25</value></Data>
<Data name="end_time"><value>2026-04-13 16:48:25</value></Data>
<Data name="mi"><value>1214.7</value></Data>
<Data name="desc"><value></value></Data>
</ExtendedData>
</Placemark>
<Style id='0486998a-bfac-4bbb-8598-4e81bc27a8ff'>
<LineStyle>
<color>FF0000FF</color>
<width>3.0</width>
</LineStyle>
<PolyStyle>
<color>000000FF</color>
</PolyStyle>
</Style>
</Document>
</kml>
