<?xml version='1.0' encoding='UTF-8'?>
<kml xmlns='http://www.opengis.net/kml/2.2' xmlns:gx='http://www.google.com/kml/ext/2.2'>
<Document>
<name>450</name>
<Placemark>
<styleUrl>#92902527-2209-489d-bb0d-12cd2c9798ad</styleUrl>
<name>450</name>
<Polygon>
<outerBoundaryIs>
<LinearRing>
<coordinates>85.95184323,44.39635209,0.0 85.95198754,44.40014005,0.0 85.94246485,44.40053647,0.0 85.94233783,44.39765049,0.0 85.94471997,44.39752247,0.0 85.94475347,44.39661750,0.0 85.95184323,44.39635209,0.0</coordinates>
</LinearRing>
</outerBoundaryIs>
</Polygon>
<ExtendedData>
<Data name="area"><value>302765.3</value></Data>
<Data name="面积(亩)"><value>454.148</value></Data>
<Data name="begin_time"><value>2026-04-13 16:48:01</value></Data>
<Data name="end_time"><value>2026-04-13 16:48:01</value></Data>
<Data name="mi"><value>2357.4</value></Data>
<Data name="desc"><value></value></Data>
</ExtendedData>
</Placemark>
<Style id='92902527-2209-489d-bb0d-12cd2c9798ad'>
<LineStyle>
<color>FF0000FF</color>
<width>3.0</width>
</LineStyle>
<PolyStyle>
<color>000000FF</color>
</PolyStyle>
</Style>
</Document>
</kml>
