<?xml version='1.0' encoding='UTF-8'?>
<kml xmlns='http://www.opengis.net/kml/2.2' xmlns:gx='http://www.google.com/kml/ext/2.2'>
<Document>
<name>北泉</name>
<Placemark>
<name>北泉</name>
<description><![CDATA[:: {"名称":"北泉","纬经度":"85.95162900,44.40029300,336.82","照片":"","时间":"2026-04-11 09:58:06","标记样式":0,"分类":"","描述":"","描述2":"","描述3":"","卫星数":75,"精度":"3.79"}]]></description>
<Point>
<coordinates>85.95162900,44.40029300,336.82</coordinates>
</Point>
<ExtendedData>
<Data name="satelliteCount"><value>75</value></Data>
<Data name="markerStyle"><value>0</value></Data>
<Data name="accuracy"><value>3.79</value></Data>
<Data name="saveTime"><value>2026-04-11 09:58:06</value></Data>
<Data name="type"><value>0</value></Data>
<Data name="desc"><value></value></Data>
<Data name="desc2"><value></value></Data>
<Data name="desc3"><value></value></Data>
</ExtendedData>
</Placemark>
</Document>
</kml>
