<?xml version='1.0' encoding='UTF-8'?>
<kml xmlns='http://www.opengis.net/kml/2.2' xmlns:gx='http://www.google.com/kml/ext/2.2'>
<Document>
<name>150</name>
<Placemark>
<styleUrl>#1627796f-3f2a-45a0-b50e-31c9550ca048</styleUrl>
<name>150</name>
<Polygon>
<outerBoundaryIs>
<LinearRing>
<coordinates>85.95197300,44.39609778,0.0 85.95643666,44.39649516,0.0 85.95683720,44.39739462,0.0 85.95713761,44.39800788,0.0 85.95590737,44.39843109,0.0 85.95228587,44.39948951,0.0 85.95199173,44.39608624,0.0 85.95197300,44.39609778,0.0 85.95197300,44.39609778,0.0 85.95197300,44.39609778,0.0</coordinates>
</LinearRing>
</outerBoundaryIs>
</Polygon>
<ExtendedData>
<Data name="area"><value>103944.66</value></Data>
<Data name="面积(亩)"><value>155.917</value></Data>
<Data name="begin_time"><value>2026-04-12 10:19:14</value></Data>
<Data name="end_time"><value>2026-04-12 10:19:14</value></Data>
<Data name="mi"><value>1336.5</value></Data>
<Data name="desc"><value></value></Data>
</ExtendedData>
</Placemark>
<Style id='1627796f-3f2a-45a0-b50e-31c9550ca048'>
<LineStyle>
<color>FF0000FF</color>
<width>3.0</width>
</LineStyle>
<PolyStyle>
<color>337F48E3</color>
</PolyStyle>
</Style>
</Document>
</kml>
