<?xml version='1.0' encoding='UTF-8'?>
<kml xmlns='http://www.opengis.net/kml/2.2' xmlns:gx='http://www.google.com/kml/ext/2.2'>
<Document>
<name>北屯</name>
<Placemark>
<name>北屯</name>
<description><![CDATA[:: {"名称":"北屯","纬经度":"87.87807341,46.76440037,0","照片":"","时间":"2026-04-21 14:09:14","标记样式":0,"分类":"","描述":"","描述2":"","描述3":"","卫星数":0,"精度":0}]]></description>
<visibility></visibility>
<Point>
<coordinates>87.87807341,46.76440037,0</coordinates>
</Point>
<ExtendedData>
<Data name="satelliteCount"><value>0</value></Data>
<Data name="markerStyle"><value>0</value></Data>
<Data name="accuracy"><value>0</value></Data>
<Data name="saveTime"><value>2026-04-21 14:09:14</value></Data>
<Data name="type"><value>0</value></Data>
<Data name="desc"><value></value></Data>
<Data name="desc2"><value></value></Data>
<Data name="desc3"><value></value></Data>
</ExtendedData>
</Placemark>
</Document>
</kml>
