<?xml version='1.0' encoding='UTF-8'?>
<kml xmlns='http://www.opengis.net/kml/2.2' xmlns:gx='http://www.google.com/kml/ext/2.2'>
<Document>
<name>120左加厚60，右普通60</name>
<Placemark>
<styleUrl>#b78819cc-6d11-4053-973b-8bdeb33cd61f</styleUrl>
<name>120左加厚60，右普通60</name>
<Polygon>
<outerBoundaryIs>
<LinearRing>
<coordinates>85.93192588,44.37636307,0.0 85.92992233,44.37726231,0.0 85.93030119,44.38127003,0.0 85.93157748,44.38132014,0.0 85.93234080,44.38147252,0.0 85.93193391,44.37640141,0.0 85.93192588,44.37636307,0.0 85.93192588,44.37636307,0.0</coordinates>
</LinearRing>
</outerBoundaryIs>
</Polygon>
<ExtendedData>
<Data name="area"><value>82344.22</value></Data>
<Data name="面积(亩)"><value>123.516</value></Data>
<Data name="begin_time"><value>2026-04-14 16:57:04</value></Data>
<Data name="end_time"><value>2026-04-14 16:57:04</value></Data>
<Data name="mi"><value>1369.9</value></Data>
<Data name="desc"><value></value></Data>
</ExtendedData>
</Placemark>
<Style id='b78819cc-6d11-4053-973b-8bdeb33cd61f'>
<LineStyle>
<color>FF0000FF</color>
<width>3.0</width>
</LineStyle>
<PolyStyle>
<color>337F48E3</color>
</PolyStyle>
</Style>
</Document>
</kml>
