<?xml version='1.0' encoding='UTF-8'?>
<kml xmlns='http://www.opengis.net/kml/2.2' xmlns:gx='http://www.google.com/kml/ext/2.2'>
<Document>
<name>辣子100</name>
<Placemark>
<styleUrl>#fc79ef67-a046-40f9-86cb-e9515fe601fa</styleUrl>
<name>辣子100</name>
<Polygon>
<outerBoundaryIs>
<LinearRing>
<coordinates>85.95132584,44.40678494,0.0 85.95092529,44.40030546,0.0 85.95195526,44.40025532,0.0 85.95258469,44.40674502,0.0 85.95132584,44.40678494,0.0 85.95132584,44.40678494,0.0 85.95132584,44.40678494,0.0</coordinates>
</LinearRing>
</outerBoundaryIs>
</Polygon>
<ExtendedData>
<Data name="area"><value>65758.11</value></Data>
<Data name="面积(亩)"><value>98.637</value></Data>
<Data name="begin_time"><value>2026-04-21 14:38:08</value></Data>
<Data name="end_time"><value>2026-04-21 14:38:08</value></Data>
<Data name="mi"><value>1628.5</value></Data>
<Data name="desc"><value></value></Data>
</ExtendedData>
</Placemark>
<Style id='fc79ef67-a046-40f9-86cb-e9515fe601fa'>
<LineStyle>
<color>FF0000FF</color>
<width>3.0</width>
</LineStyle>
<PolyStyle>
<color>337F48E3</color>
</PolyStyle>
</Style>
</Document>
</kml>
