<?xml version='1.0' encoding='UTF-8'?>
<kml xmlns='http://www.opengis.net/kml/2.2' xmlns:gx='http://www.google.com/kml/ext/2.2'>
<Document>
<name>50</name>
<Placemark>
<styleUrl>#0db6e840-3d3f-5cb2-7554-78558ca186c3</styleUrl>
<name>50</name>
<Polygon>
<outerBoundaryIs>
<LinearRing>
<coordinates>85.95297602,44.40683195,0.0 85.95484999,44.40626988,0.0 85.95495013,44.40827287,0.0 85.95303324,44.40882471,0.0 85.95297602,44.40683195,0.0 85.95297602,44.40683195,0.0</coordinates>
</LinearRing>
</outerBoundaryIs>
</Polygon>
<ExtendedData>
<Data name="area"><value>33835.49</value></Data>
<Data name="面积(亩)"><value>50.753</value></Data>
<Data name="begin_time"><value>2026-04-21 14:59:41</value></Data>
<Data name="end_time"><value>2026-04-21 14:59:41</value></Data>
<Data name="mi"><value>771.0</value></Data>
<Data name="desc"><value></value></Data>
</ExtendedData>
</Placemark>
<Style id='0db6e840-3d3f-5cb2-7554-78558ca186c3'>
<LineStyle>
<color>FF0000FF</color>
<width>3.0</width>
</LineStyle>
<PolyStyle>
<color>000000FF</color>
</PolyStyle>
</Style>
</Document>
</kml>
