<?xml version='1.0' encoding='UTF-8'?>
<kml xmlns='http://www.opengis.net/kml/2.2' xmlns:gx='http://www.google.com/kml/ext/2.2'>
<Document>
<name>460</name>
<Placemark>
<styleUrl>#52b6fda7-6302-4c2e-8c4e-7d45e0af8a90</styleUrl>
<name>460</name>
<Polygon>
<outerBoundaryIs>
<LinearRing>
<coordinates>85.94978808,44.40409370,0.0 85.94978808,44.40409370,0.0 85.94965045,44.40034338,0.0 85.94026178,44.40077228,0.0 85.94005817,44.40435643,0.0 85.94982287,44.40407446,0.0 85.94978808,44.40409370,0.0 85.94978808,44.40409370,0.0</coordinates>
</LinearRing>
</outerBoundaryIs>
</Polygon>
<ExtendedData>
<Data name="area"><value>310033.5</value></Data>
<Data name="面积(亩)"><value>465.050</value></Data>
<Data name="begin_time"><value>2026-04-11 11:38:15</value></Data>
<Data name="end_time"><value>2026-04-11 11:38:15</value></Data>
<Data name="mi"><value>2345.9</value></Data>
<Data name="desc"><value></value></Data>
</ExtendedData>
</Placemark>
<Style id='52b6fda7-6302-4c2e-8c4e-7d45e0af8a90'>
<LineStyle>
<color>FF0000FF</color>
<width>3.0</width>
</LineStyle>
<PolyStyle>
<color>337F48E3</color>
</PolyStyle>
</Style>
</Document>
</kml>
