<?xml version='1.0' encoding='UTF-8'?>
<kml xmlns='http://www.opengis.net/kml/2.2' xmlns:gx='http://www.google.com/kml/ext/2.2'>
<Document>
<name>370</name>
<Placemark>
<styleUrl>#dff8fe2f-17e3-4d8c-a070-e9dfc2277d7a</styleUrl>
<name>370</name>
<Polygon>
<outerBoundaryIs>
<LinearRing>
<coordinates>85.95262800,44.40678475,0.0 85.95329383,44.41381669,0.0 85.94923513,44.41382529,0.0 85.94874843,44.40693761,0.0 85.95262800,44.40678475,0.0</coordinates>
</LinearRing>
</outerBoundaryIs>
</Polygon>
<ExtendedData>
<Data name="area"><value>245465.16</value></Data>
<Data name="面积(亩)"><value>368.198</value></Data>
<Data name="begin_time"><value>2026-04-13 16:44:42</value></Data>
<Data name="end_time"><value>2026-04-13 16:44:42</value></Data>
<Data name="mi"><value>2184.0</value></Data>
<Data name="desc"><value></value></Data>
</ExtendedData>
</Placemark>
<Style id='dff8fe2f-17e3-4d8c-a070-e9dfc2277d7a'>
<LineStyle>
<color>FF0000FF</color>
<width>3.0</width>
</LineStyle>
<PolyStyle>
<color>000000FF</color>
</PolyStyle>
</Style>
</Document>
</kml>
