<?xml version='1.0' encoding='UTF-8'?>
<kml xmlns='http://www.opengis.net/kml/2.2' xmlns:gx='http://www.google.com/kml/ext/2.2'>
<Document>
<name>500</name>
<Placemark>
<styleUrl>#b670a556-9a71-4c45-9655-0cac5538a722</styleUrl>
<name>500</name>
<Polygon>
<outerBoundaryIs>
<LinearRing>
<coordinates>85.93999307,44.39299279,0.0 85.94034495,44.39649215,0.0 85.95200243,44.39600282,0.0 85.95301907,44.39559321,0.0 85.95275569,44.39240246,0.0 85.93986591,44.39295274,0.0 85.93999307,44.39299279,0.0 85.93999307,44.39299279,0.0</coordinates>
</LinearRing>
</outerBoundaryIs>
</Polygon>
<ExtendedData>
<Data name="area"><value>400997.3</value></Data>
<Data name="面积(亩)"><value>601.496</value></Data>
<Data name="begin_time"><value>2026-04-12 10:12:59</value></Data>
<Data name="end_time"><value>2026-04-12 10:12:59</value></Data>
<Data name="mi"><value>2806.2</value></Data>
<Data name="desc"><value></value></Data>
</ExtendedData>
</Placemark>
<Style id='b670a556-9a71-4c45-9655-0cac5538a722'>
<LineStyle>
<color>FF0000FF</color>
<width>3.0</width>
</LineStyle>
<PolyStyle>
<color>337F48E3</color>
</PolyStyle>
</Style>
</Document>
</kml>
