<?xml version='1.0' encoding='UTF-8'?>
<kml xmlns='http://www.opengis.net/kml/2.2' xmlns:gx='http://www.google.com/kml/ext/2.2'>
<Document>
<name>200</name>
<Placemark>
<styleUrl>#59dd288b-e451-4e9f-9ef3-0e5fd5b1733d</styleUrl>
<name>200</name>
<Polygon>
<outerBoundaryIs>
<LinearRing>
<coordinates>85.93991142,44.39300635,0.0 85.94015222,44.39607165,0.0 85.93472231,44.39631416,0.0 85.93457114,44.39330812,0.0 85.93991141,44.39306578,0.0 85.93991142,44.39300635,0.0</coordinates>
</LinearRing>
</outerBoundaryIs>
</Polygon>
<ExtendedData>
<Data name="area"><value>144011.6</value></Data>
<Data name="面积(亩)"><value>216.017</value></Data>
<Data name="begin_time"><value>2026-04-12 10:07:13</value></Data>
<Data name="end_time"><value>2026-04-12 10:07:13</value></Data>
<Data name="mi"><value>1541.6</value></Data>
<Data name="desc"><value></value></Data>
</ExtendedData>
</Placemark>
<Style id='59dd288b-e451-4e9f-9ef3-0e5fd5b1733d'>
<LineStyle>
<color>FF0000FF</color>
<width>3.0</width>
</LineStyle>
<PolyStyle>
<color>000000FF</color>
</PolyStyle>
</Style>
</Document>
</kml>
