<?xml version='1.0' encoding='UTF-8'?>
<kml xmlns='http://www.opengis.net/kml/2.2' xmlns:gx='http://www.google.com/kml/ext/2.2'>
<Document>
<name>80</name>
<Placemark>
<styleUrl>#affaf9fe-e916-436b-bcbc-e5195acfe1f5</styleUrl>
<name>80</name>
<Polygon>
<outerBoundaryIs>
<LinearRing>
<coordinates>85.92946828,44.37747768,0.0 85.92993285,44.38191102,0.0 85.92848094,44.38228869,0.0 85.92820921,44.37812649,0.0 85.92946828,44.37747768,0.0</coordinates>
</LinearRing>
</outerBoundaryIs>
</Polygon>
<ExtendedData>
<Data name="area"><value>53314.44</value></Data>
<Data name="面积(亩)"><value>79.972</value></Data>
<Data name="begin_time"><value>2026-04-14 16:57:48</value></Data>
<Data name="end_time"><value>2026-04-14 16:57:48</value></Data>
<Data name="mi"><value>1205.2</value></Data>
<Data name="desc"><value>加厚</value></Data>
</ExtendedData>
</Placemark>
<Style id='affaf9fe-e916-436b-bcbc-e5195acfe1f5'>
<LineStyle>
<color>FF0000FF</color>
<width>3.0</width>
</LineStyle>
<PolyStyle>
<color>000000FF</color>
</PolyStyle>
</Style>
</Document>
</kml>
