<?xml version='1.0' encoding='UTF-8'?>
<kml xmlns='http://www.opengis.net/kml/2.2' xmlns:gx='http://www.google.com/kml/ext/2.2'>
<Document>
<name>300</name>
<Placemark>
<styleUrl>#736ea2db-6b80-93f3-ca0d-64fd49c6d812</styleUrl>
<name>300</name>
<Polygon>
<outerBoundaryIs>
<LinearRing>
<coordinates>89.46927300,44.10685601,0.0 89.47549573,44.10580315,0.0 89.47620483,44.10182822,0.0 89.46991773,44.10306092,0.0 89.46927300,44.10685601,0.0 89.46927300,44.10685601,0.0</coordinates>
</LinearRing>
</outerBoundaryIs>
</Polygon>
<ExtendedData>
<Data name="area"><value>208883.05</value></Data>
<Data name="面积(亩)"><value>313.325</value></Data>
<Data name="begin_time"><value>2026-04-21 16:37:51</value></Data>
<Data name="end_time"><value>2026-04-21 16:37:51</value></Data>
<Data name="mi"><value>1903.7</value></Data>
<Data name="desc"><value></value></Data>
</ExtendedData>
</Placemark>
<Style id='736ea2db-6b80-93f3-ca0d-64fd49c6d812'>
<LineStyle>
<color>FF0000FF</color>
<width>3.0</width>
</LineStyle>
<PolyStyle>
<color>000000FF</color>
</PolyStyle>
</Style>
</Document>
</kml>
