<?xml version='1.0' encoding='UTF-8'?>
<kml xmlns='http://www.opengis.net/kml/2.2' xmlns:gx='http://www.google.com/kml/ext/2.2'>
<Document>
<name>50亩可降解</name>
<Placemark>
<styleUrl>#aa3ff67c-9a5a-401c-a564-8d96fa9e4d00</styleUrl>
<name>50亩可降解</name>
<Polygon>
<outerBoundaryIs>
<LinearRing>
<coordinates>85.90841886,44.40316162,0.0 85.90833307,44.40218974,0.0 85.91290811,44.40691500,0.0 85.91237582,44.40720758,0.0 85.90841886,44.40316162,0.0 85.90841886,44.40316162,0.0</coordinates>
</LinearRing>
</outerBoundaryIs>
</Polygon>
<ExtendedData>
<Data name="area"><value>32535.56</value></Data>
<Data name="面积(亩)"><value>48.803</value></Data>
<Data name="begin_time"><value>2026-04-14 18:17:52</value></Data>
<Data name="end_time"><value>2026-04-14 18:17:52</value></Data>
<Data name="mi"><value>1350.8</value></Data>
<Data name="desc"><value></value></Data>
</ExtendedData>
</Placemark>
<Style id='aa3ff67c-9a5a-401c-a564-8d96fa9e4d00'>
<LineStyle>
<color>FF0000FF</color>
<width>3.0</width>
</LineStyle>
<PolyStyle>
<color>337F48E3</color>
</PolyStyle>
</Style>
</Document>
</kml>
