<?xml version='1.0' encoding='UTF-8'?>
<kml xmlns='http://www.opengis.net/kml/2.2' xmlns:gx='http://www.google.com/kml/ext/2.2'>
<Document>
<name>加厚、普通7+7</name>
<Placemark>
<styleUrl>#5e3988f0-f415-ba56-d3f2-f4dd7e3dd838</styleUrl>
<name>加厚、普通7+7</name>
<Polygon>
<outerBoundaryIs>
<LinearRing>
<coordinates>85.92600324,44.41021128,0.0 85.92796305,44.40988939,0.0 85.92744806,44.40485126,0.0 85.92554548,44.40523961,0.0 85.92600324,44.41021128,0.0 85.92600324,44.41021128,0.0</coordinates>
</LinearRing>
</outerBoundaryIs>
</Polygon>
<ExtendedData>
<Data name="area"><value>86898.79</value></Data>
<Data name="面积(亩)"><value>130.348</value></Data>
<Data name="begin_time"><value>2026-04-21 16:27:25</value></Data>
<Data name="end_time"><value>2026-04-21 16:27:25</value></Data>
<Data name="mi"><value>1434.2</value></Data>
<Data name="desc"><value></value></Data>
</ExtendedData>
</Placemark>
<Style id='5e3988f0-f415-ba56-d3f2-f4dd7e3dd838'>
<LineStyle>
<color>FF0000FF</color>
<width>3.0</width>
</LineStyle>
<PolyStyle>
<color>000000FF</color>
</PolyStyle>
</Style>
</Document>
</kml>
