<?xml version='1.0' encoding='UTF-8'?>
<kml xmlns='http://www.opengis.net/kml/2.2' xmlns:gx='http://www.google.com/kml/ext/2.2'>
<Document>
<name>新源900亩</name>
<Placemark>
<styleUrl>#421960c7-2318-4229-a2d0-8da73d8ef496</styleUrl>
<name>新源900亩</name>
<Polygon>
<outerBoundaryIs>
<LinearRing>
<coordinates>83.29364359,43.49722572,0.0 83.29212487,43.49247358,0.0 83.29323609,43.49206233,0.0 83.30478599,43.48797615,0.0 83.30659316,43.49260899,0.0 83.29360478,43.49732794,0.0 83.29364359,43.49722572,0.0 83.29364359,43.49722572,0.0 83.29364359,43.49722572,0.0</coordinates>
</LinearRing>
</outerBoundaryIs>
</Polygon>
<ExtendedData>
<Data name="area"><value>613036.4</value></Data>
<Data name="面积(亩)"><value>919.555</value></Data>
<Data name="begin_time"><value>2026-04-07 17:39:00</value></Data>
<Data name="end_time"><value>2026-04-07 17:39:00</value></Data>
<Data name="mi"><value>3402.4</value></Data>
<Data name="desc"><value></value></Data>
</ExtendedData>
</Placemark>
<Style id='421960c7-2318-4229-a2d0-8da73d8ef496'>
<LineStyle>
<color>FF0000FF</color>
<width>3.0</width>
</LineStyle>
<PolyStyle>
<color>337F48E3</color>
</PolyStyle>
</Style>
</Document>
</kml>
