<?xml version='1.0' encoding='UTF-8'?>
<kml xmlns='http://www.opengis.net/kml/2.2' xmlns:gx='http://www.google.com/kml/ext/2.2'>
<Document>
<name>奇台</name>
<Placemark>
<styleUrl>#68f4df4f-551e-4cff-b10f-5ce68eb0d28b</styleUrl>
<name>奇台</name>
<Polygon>
<outerBoundaryIs>
<LinearRing>
<coordinates>89.48388900,44.10453927,0.0 89.48322774,44.10048436,0.0 89.48729917,44.09968091,0.0 89.48695539,44.10380428,0.0 89.48388900,44.10453927,0.0 89.48388900,44.10453927,0.0</coordinates>
</LinearRing>
</outerBoundaryIs>
</Polygon>
<ExtendedData>
<Data name="area"><value>130271.3</value></Data>
<Data name="面积(亩)"><value>195.407</value></Data>
<Data name="begin_time"><value>2026-04-02 14:30:04</value></Data>
<Data name="end_time"><value>2026-04-02 14:30:04</value></Data>
<Data name="mi"><value>1510.3</value></Data>
<Data name="desc"><value></value></Data>
</ExtendedData>
</Placemark>
<Style id='68f4df4f-551e-4cff-b10f-5ce68eb0d28b'>
<LineStyle>
<color>FF0000FF</color>
<width>3.0</width>
</LineStyle>
<PolyStyle>
<color>337F48E3</color>
</PolyStyle>
</Style>
</Document>
</kml>
