<?xml version='1.0' encoding='UTF-8'?>
<kml xmlns='http://www.opengis.net/kml/2.2' xmlns:gx='http://www.google.com/kml/ext/2.2'>
<Document>
<name>100</name>
<Placemark>
<styleUrl>#f81a1d9f-9e1d-4d03-b781-8fcba5213a1a</styleUrl>
<name>100</name>
<Polygon>
<outerBoundaryIs>
<LinearRing>
<coordinates>83.29363236,43.49726643,0.0 83.29210171,43.49247205,0.0 83.29271683,43.49222298,0.0 83.29330762,43.49205195,0.0 83.29453786,43.49493694,0.0 83.29528530,43.49668552,0.0 83.29363236,43.49726643,0.0 83.29363236,43.49726643,0.0 83.29363236,43.49726643,0.0 83.29363236,43.49726643,0.0</coordinates>
</LinearRing>
</outerBoundaryIs>
</Polygon>
<ExtendedData>
<Data name="area"><value>68478.86</value></Data>
<Data name="面积(亩)"><value>102.718</value></Data>
<Data name="begin_time"><value>2026-04-21 15:40:56</value></Data>
<Data name="end_time"><value>2026-04-21 15:40:56</value></Data>
<Data name="mi"><value>1344.4</value></Data>
<Data name="desc"><value></value></Data>
</ExtendedData>
</Placemark>
<Style id='f81a1d9f-9e1d-4d03-b781-8fcba5213a1a'>
<LineStyle>
<color>FF0000FF</color>
<width>3.0</width>
</LineStyle>
<PolyStyle>
<color>337F48E3</color>
</PolyStyle>
</Style>
</Document>
</kml>
