<?xml version='1.0' encoding='UTF-8'?>
<kml xmlns='http://www.opengis.net/kml/2.2' xmlns:gx='http://www.google.com/kml/ext/2.2'>
<Document>
<name>100</name>
<Placemark>
<styleUrl>#48111b03-1413-4ea1-84bd-91291c61befa</styleUrl>
<name>100</name>
<Polygon>
<outerBoundaryIs>
<LinearRing>
<coordinates>89.48394291,44.10460240,0.0 89.48525898,44.10429424,0.0 89.48597424,44.10900896,0.0 89.48467247,44.10921439,0.0 89.48394291,44.10460240,0.0 89.48394291,44.10460240,0.0 89.48394291,44.10460240,0.0</coordinates>
</LinearRing>
</outerBoundaryIs>
</Polygon>
<ExtendedData>
<Data name="area"><value>55838.68</value></Data>
<Data name="面积(亩)"><value>83.758</value></Data>
<Data name="begin_time"><value>2026-04-21 14:24:57</value></Data>
<Data name="end_time"><value>2026-04-21 14:24:57</value></Data>
<Data name="mi"><value>1261.8</value></Data>
<Data name="desc"><value></value></Data>
</ExtendedData>
</Placemark>
<Style id='48111b03-1413-4ea1-84bd-91291c61befa'>
<LineStyle>
<color>FF0000FF</color>
<width>3.0</width>
</LineStyle>
<PolyStyle>
<color>337F48E3</color>
</PolyStyle>
</Style>
</Document>
</kml>
